start=new Date('2023-02-16T00:00:00.000Z').valueOf();
sats=[{"REV_AT_EPOCH":"2828","OBJECT_TYPE":"PAYLOAD","FILE":"3795153","BSTAR":"0.00106080000000","NORAD_CAT_ID":"53498","EPHEMERIS_TYPE":"0","MEAN_ANOMALY":"225.9441","TIME_SYSTEM":"UTC","MEAN_MOTION_DOT":"0.00013603","ECCENTRICITY":"0.00005360","GP_ID":"225554496","SITE":"AFWTR","CENTER_NAME":"EARTH","SEMIMAJOR_AXIS":"6941.057","ARG_OF_PERICENTER":"134.1827","TLE_LINE1":"1 53498U 22099AK  23046.92296206  .00013603  00000-0  10608-2 0  9992","REF_FRAME":"TEME","RA_OF_ASC_NODE":"169.7381","MEAN_MOTION":"15.01289253","PERIOD":"95.918","EPOCH":"2023-02-15T22:09:03.921984","OBJECT_NAME":"STARLINK-4439","CLASSIFICATION_TYPE":"U","TLE_LINE2":"2 53498  97.6514 169.7381 0000536 134.1827 225.9441 15.01289253 28281","COUNTRY_CODE":"US","DECAY_DATE":null,"MEAN_ELEMENT_THEORY":"SGP4","PERIAPSIS":"562.550","INCLINATION":"97.6514","APOAPSIS":"563.294","RCS_SIZE":"MEDIUM","OBJECT_ID":"2022-099AK","MEAN_MOTION_DDOT":"0.0000000000000","ELEMENT_SET_NO":"999","LAUNCH_DATE":"2022-08-12"},{"CENTER_NAME":"EARTH","SITE":"AFWTR","TLE_LINE1":"1 53499U 22099AL  23046.98245494  .00005244  00000-0  41241-3 0  9992","SEMIMAJOR_AXIS":"6941.100","ARG_OF_PERICENTER":"192.0227","RA_OF_ASC_NODE":"169.7928","REF_FRAME":"TEME","MEAN_MOTION":"15.01275096","OBJECT_TYPE":"PAYLOAD","FILE":"3794938","REV_AT_EPOCH":"2853","NORAD_CAT_ID":"53499","TIME_SYSTEM":"UTC","EPHEMERIS_TYPE":"0","MEAN_ANOMALY":"168.0981","BSTAR":"0.00041241000000","ECCENTRICITY":"0.00006910","GP_ID":"225525862","MEAN_MOTION_DOT":"0.00005244","INCLINATION":"97.6533","PERIAPSIS":"562.486","APOAPSIS":"563.445","RCS_SIZE":"LARGE","MEAN_MOTION_DDOT":"0.0000000000000","OBJECT_ID":"2022-099AL","LAUNCH_DATE":"2022-08-12","ELEMENT_SET_NO":"999","PERIOD":"95.918","EPOCH":"2023-02-15T23:34:44.106816","OBJECT_NAME":"STARLINK-4454","TLE_LINE2":"2 53499  97.6533 169.7928 0000691 192.0227 168.0981 15.01275096 28533","CLASSIFICATION_TYPE":"U","DECAY_DATE":null,"COUNTRY_CODE":"US","MEAN_ELEMENT_THEORY":"SGP4"},{"PERIOD":"95.918","EPOCH":"2023-02-15T22:03:43.946496","OBJECT_NAME":"STARLINK-4455","TLE_LINE2":"2 53500  97.6528 169.7350 0000888 243.2048 116.9085 15.01286298 28282","CLASSIFICATION_TYPE":"U","DECAY_DATE":null,"COUNTRY_CODE":"US","MEAN_ELEMENT_THEORY":"SGP4","INCLINATION":"97.6528","PERIAPSIS":"562.314","APOAPSIS":"563.547","RCS_SIZE":"LARGE","MEAN_MOTION_DDOT":"0.0000000000000","OBJECT_ID":"2022-099AM","LAUNCH_DATE":"2022-08-12","ELEMENT_SET_NO":"999","OBJECT_TYPE":"PAYLOAD","FILE":"3795153","REV_AT_EPOCH":"2828","NORAD_CAT_ID":"53500","EPHEMERIS_TYPE":"0","TIME_SYSTEM":"UTC","MEAN_ANOMALY":"116.9085","BSTAR":"0.00106300000000","ECCENTRICITY":"0.00008880","GP_ID":"225554998","MEAN_MOTION_DOT":"0.00013630","CENTER_NAME":"EARTH","SITE":"AFWTR","TLE_LINE1":"1 53500U 22099AM  23046.91925864  .00013630  00000-0  10630-2 0  9999","SEMIMAJOR_AXIS":"6941.066","ARG_OF_PERICENTER":"243.2048","RA_OF_ASC_NODE":"169.7350","REF_FRAME":"TEME","MEAN_MOTION":"15.01286298"},{"COUNTRY_CODE":"US","DECAY_DATE":null,"MEAN_ELEMENT_THEORY":"SGP4","PERIOD":"95.918","EPOCH":"2023-02-15T21:53:03.565248","OBJECT_NAME":"STARLINK-4434","CLASSIFICATION_TYPE":"U","TLE_LINE2":"2 53501  97.6535 169.7240 0002349 257.7163 102.3798 15.01277341 28280","OBJECT_ID":"2022-099AN","MEAN_MOTION_DDOT":"0.0000000000000","ELEMENT_SET_NO":"999","LAUNCH_DATE":"2022-08-12","PERIAPSIS":"561.328","INCLINATION":"97.6535","RCS_SIZE":"LARGE","APOAPSIS":"564.589","MEAN_MOTION_DOT":"0.00002426","GP_ID":"225555240","ECCENTRICITY":"0.00023490","REV_AT_EPOCH":"2828","OBJECT_TYPE":"PAYLOAD","FILE":"3795153","BSTAR":"0.00019329000000","TIME_SYSTEM":"UTC","NORAD_CAT_ID":"53501","EPHEMERIS_TYPE":"0","MEAN_ANOMALY":"102.3798","REF_FRAME":"TEME","RA_OF_ASC_NODE":"169.7240","MEAN_MOTION":"15.01277341","SITE":"AFWTR","CENTER_NAME":"EARTH","SEMIMAJOR_AXIS":"6941.093","ARG_OF_PERICENTER":"257.7163","TLE_LINE1":"1 53501U 22099AN  23046.91184682  .00002426  00000-0  19329-3 0  9991"},{"PERIAPSIS":"561.918","INCLINATION":"97.6547","RCS_SIZE":"LARGE","APOAPSIS":"564.085","OBJECT_ID":"2022-099AP","MEAN_MOTION_DDOT":"0.0000000000000","ELEMENT_SET_NO":"999","LAUNCH_DATE":"2022-08-12","EPOCH":"2023-02-15T23:34:22.991520","PERIOD":"95.919","TLE_LINE2":"2 53502  97.6547 169.7921 0001561 240.9624 119.1443 15.01263319 28532","CLASSIFICATION_TYPE":"U","OBJECT_NAME":"STARLINK-4435","COUNTRY_CODE":"US","DECAY_DATE":null,"MEAN_ELEMENT_THEORY":"SGP4","SITE":"AFWTR","CENTER_NAME":"EARTH","ARG_OF_PERICENTER":"240.9624","SEMIMAJOR_AXIS":"6941.137","TLE_LINE1":"1 53502U 22099AP  23046.98221055  .00001789  00000-0  14386-3 0  9994","REF_FRAME":"TEME","RA_OF_ASC_NODE":"169.7921","MEAN_MOTION":"15.01263319","REV_AT_EPOCH":"2853","FILE":"3794938","OBJECT_TYPE":"PAYLOAD","BSTAR":"0.00014386000000","NORAD_CAT_ID":"53502","EPHEMERIS_TYPE":"0","TIME_SYSTEM":"UTC","MEAN_ANOMALY":"119.1443","MEAN_MOTION_DOT":"0.00001789","GP_ID":"225525861","ECCENTRICITY":"0.00015610"},{"PERIAPSIS":"561.720","INCLINATION":"97.6538","RCS_SIZE":"LARGE","APOAPSIS":"564.238","OBJECT_ID":"2022-099AQ","MEAN_MOTION_DDOT":"0.0000000000000","ELEMENT_SET_NO":"999","LAUNCH_DATE":"2022-08-12","PERIOD":"95.919","EPOCH":"2023-02-15T23:26:22.884864","OBJECT_NAME":"STARLINK-4461","TLE_LINE2":"2 53503  97.6538 169.7856 0001814 251.8145 108.2882 15.01270541 28531","CLASSIFICATION_TYPE":"U","COUNTRY_CODE":"US","DECAY_DATE":null,"MEAN_ELEMENT_THEORY":"SGP4","SITE":"AFWTR","CENTER_NAME":"EARTH","SEMIMAJOR_AXIS":"6941.114","ARG_OF_PERICENTER":"251.8145","TLE_LINE1":"1 53503U 22099AQ  23046.97665376  .00005279  00000-0  41520-3 0  9990","REF_FRAME":"TEME","RA_OF_ASC_NODE":"169.7856","MEAN_MOTION":"15.01270541","REV_AT_EPOCH":"2853","OBJECT_TYPE":"PAYLOAD","FILE":"3794941","BSTAR":"0.00041520000000","NORAD_CAT_ID":"53503","MEAN_ANOMALY":"108.2882","EPHEMERIS_TYPE":"0","TIME_SYSTEM":"UTC","MEAN_MOTION_DOT":"0.00005279","ECCENTRICITY":"0.00018140","GP_ID":"225525917"},{"OBJECT_TYPE":"PAYLOAD","FILE":"3794938","REV_AT_EPOCH":"2853","NORAD_CAT_ID":"53504","MEAN_ANOMALY":"128.4803","EPHEMERIS_TYPE":"0","TIME_SYSTEM":"UTC","BSTAR":"0.00139950000000","GP_ID":"225526281","ECCENTRICITY":"0.00011470","MEAN_MOTION_DOT":"0.00017973","CENTER_NAME":"EARTH","SITE":"AFWTR","TLE_LINE1":"1 53504U 22099AR  23046.98035589  .00017973  00000-0  13995-2 0  9997","SEMIMAJOR_AXIS":"6941.075","ARG_OF_PERICENTER":"231.6318","RA_OF_ASC_NODE":"169.7908","REF_FRAME":"TEME","MEAN_MOTION":"15.01283408","PERIOD":"95.918","EPOCH":"2023-02-15T23:31:42.748896","OBJECT_NAME":"STARLINK-4448","TLE_LINE2":"2 53504  97.6527 169.7908 0001147 231.6318 128.4803 15.01283408 28538","CLASSIFICATION_TYPE":"U","DECAY_DATE":null,"COUNTRY_CODE":"US","MEAN_ELEMENT_THEORY":"SGP4","INCLINATION":"97.6527","PERIAPSIS":"562.144","APOAPSIS":"563.736","RCS_SIZE":"LARGE","MEAN_MOTION_DDOT":"0.0000000000000","OBJECT_ID":"2022-099AR","LAUNCH_DATE":"2022-08-12","ELEMENT_SET_NO":"999"},{"FILE":"3794938","OBJECT_TYPE":"PAYLOAD","REV_AT_EPOCH":"2853","NORAD_CAT_ID":"53505","EPHEMERIS_TYPE":"0","MEAN_ANOMALY":"103.6715","TIME_SYSTEM":"UTC","BSTAR":"0.00037641000000","GP_ID":"225525857","ECCENTRICITY":"0.00019170","MEAN_MOTION_DOT":"0.00004781","CENTER_NAME":"EARTH","SITE":"AFWTR","TLE_LINE1":"1 53505U 22099AS  23046.97294974  .00004781  00000-0  37641-3 0  9990","ARG_OF_PERICENTER":"256.4296","SEMIMAJOR_AXIS":"6941.107","RA_OF_ASC_NODE":"169.7825","REF_FRAME":"TEME","MEAN_MOTION":"15.01272895","EPOCH":"2023-02-15T23:21:02.857536","PERIOD":"95.919","CLASSIFICATION_TYPE":"U","TLE_LINE2":"2 53505  97.6558 169.7825 0001917 256.4296 103.6715 15.01272895 28531","OBJECT_NAME":"STARLINK-4446","DECAY_DATE":null,"COUNTRY_CODE":"US","MEAN_ELEMENT_THEORY":"SGP4","INCLINATION":"97.6558","PERIAPSIS":"561.641","RCS_SIZE":"LARGE","APOAPSIS":"564.303","MEAN_MOTION_DDOT":"0.0000000000000","OBJECT_ID":"2022-099AS","LAUNCH_DATE":"2022-08-12","ELEMENT_SET_NO":"999"},{"ECCENTRICITY":"0.00021810","GP_ID":"225525906","MEAN_MOTION_DOT":"0.00003319","EPHEMERIS_TYPE":"0","NORAD_CAT_ID":"53506","TIME_SYSTEM":"UTC","MEAN_ANOMALY":"112.5178","BSTAR":"0.00026279000000","FILE":"3794941","OBJECT_TYPE":"PAYLOAD","REV_AT_EPOCH":"2853","MEAN_MOTION":"15.01268650","RA_OF_ASC_NODE":"169.7813","REF_FRAME":"TEME","TLE_LINE1":"1 53506U 22099AT  23046.97504616  .00003319  00000-0  26279-3 0  9999","ARG_OF_PERICENTER":"247.5815","SEMIMAJOR_AXIS":"6941.120","CENTER_NAME":"EARTH","SITE":"AFWTR","MEAN_ELEMENT_THEORY":"SGP4","DECAY_DATE":null,"COUNTRY_CODE":"US","TLE_LINE2":"2 53506  97.6559 169.7813 0002181 247.5815 112.5178 15.01268650 28538","CLASSIFICATION_TYPE":"U","OBJECT_NAME":"STARLINK-4437","EPOCH":"2023-02-15T23:24:03.988224","PERIOD":"95.919","LAUNCH_DATE":"2022-08-12","ELEMENT_SET_NO":"999","MEAN_MOTION_DDOT":"0.0000000000000","OBJECT_ID":"2022-099AT","RCS_SIZE":"LARGE","APOAPSIS":"564.499","INCLINATION":"97.6559","PERIAPSIS":"561.471"},{"REF_FRAME":"TEME","RA_OF_ASC_NODE":"169.7127","MEAN_MOTION":"15.01270389","SITE":"AFWTR","CENTER_NAME":"EARTH","SEMIMAJOR_AXIS":"6941.115","ARG_OF_PERICENTER":"257.2611","TLE_LINE1":"1 53507U 22099AU  23046.90443753  .00002867  00000-0  22764-3 0  9999","MEAN_MOTION_DOT":"0.00002867","ECCENTRICITY":"0.00031680","GP_ID":"225554745","REV_AT_EPOCH":"2828","OBJECT_TYPE":"PAYLOAD","FILE":"3795153","BSTAR":"0.00022764000000","EPHEMERIS_TYPE":"0","NORAD_CAT_ID":"53507","TIME_SYSTEM":"UTC","MEAN_ANOMALY":"102.8259","OBJECT_ID":"2022-099AU","MEAN_MOTION_DDOT":"0.0000000000000","ELEMENT_SET_NO":"999","LAUNCH_DATE":"2022-08-12","PERIAPSIS":"560.781","INCLINATION":"97.6542","APOAPSIS":"565.179","RCS_SIZE":"LARGE","COUNTRY_CODE":"US","DECAY_DATE":null,"MEAN_ELEMENT_THEORY":"SGP4","PERIOD":"95.919","EPOCH":"2023-02-15T21:42:23.402592","OBJECT_NAME":"STARLINK-4444","CLASSIFICATION_TYPE":"U","TLE_LINE2":"2 53507  97.6542 169.7127 0003168 257.2611 102.8259 15.01270389 28283"}];
